CCSDS_OEM_VERS = 1.0
CREATION_DATE  = 2017-05-11T11:38:14
ORIGINATOR     = GMAT USER

META_START
OBJECT_NAME          = MOPSSat_alt_35785_km_RAAN_180_099
OBJECT_ID            = SatId
CENTER_NAME          = Earth
REF_FRAME            = EME2000
TIME_SYSTEM          = UTC
START_TIME           = 2017-01-01T00:00:00.000
USEABLE_START_TIME   = 2017-01-01T00:00:00.000
USEABLE_STOP_TIME    = 2017-01-02T00:00:00.000
STOP_TIME            = 2017-01-02T00:00:00.000
INTERPOLATION        = Lagrange
INTERPOLATION_DEGREE = 7 
META_STOP


                                                                                   

2017-01-01T06:25:00.000   1.306957135816526e+04  -4.101410483602502e+04   7.143627207220914e+01   2.944518726968804e+00   6.293656529912517e-01  -1.135961061152422e-03
2017-01-01T06:25:10.000   1.309901327804133e+04  -4.100780093262841e+04   7.142489438155135e+01   2.943864977850838e+00   6.314148935861565e-01  -1.139576837829259e-03
2017-01-01T06:25:20.000   1.312844865350451e+04  -4.100147654055490e+04   7.141348053964680e+01   2.943209892082484e+00   6.334633984358361e-01  -1.143191328680503e-03
2017-01-01T06:25:30.000   1.315787747119274e+04  -4.099513166716573e+04   7.140203055936048e+01   2.942553470527569e+00   6.355111668545559e-01  -1.146804532473190e-03
2017-01-01T06:25:40.000   1.318729971778526e+04  -4.098876631982199e+04   7.139054445355717e+01   2.941895714049188e+00   6.375581981598322e-01  -1.150416447980070e-03
2017-01-01T06:25:50.000   1.321671538007253e+04  -4.098238050586882e+04   7.137902223507271e+01   2.941236623508094e+00   6.396044916772842e-01  -1.154027073988171e-03
2017-01-01T06:26:00.000   1.324612444485121e+04  -4.097597423265859e+04   7.136746391675615e+01   2.940576199765078e+00   6.416500467333329e-01  -1.157636409285913e-03
2017-01-01T06:26:10.000   1.327552689891358e+04  -4.096954750755346e+04   7.135586951147398e+01   2.939914443681225e+00   6.436948626544693e-01  -1.161244452661818e-03
2017-01-01T06:26:20.000   1.330492272901786e+04  -4.096310033793042e+04   7.134423903211957e+01   2.939251356118481e+00   6.457389387651704e-01  -1.164851202900823e-03
2017-01-01T06:26:30.000   1.333431192186522e+04  -4.095663273118801e+04   7.133257249162509e+01   2.938586937940287e+00   6.477822743863199e-01  -1.168456658781503e-03
2017-01-01T06:26:40.000   1.336369446418596e+04  -4.095014469472669e+04   7.132086990292609e+01   2.937921190009582e+00   6.498248688411935e-01  -1.172060819086633e-03
2017-01-01T06:26:50.000   1.339307034235310e+04  -4.094363623603631e+04   7.130913127911927e+01   2.937254113197705e+00   6.518667214286182e-01  -1.175663682555821e-03
2017-01-01T06:27:00.000   1.342243954285081e+04  -4.093710736259043e+04   7.129735663327206e+01   2.936585708373634e+00   6.539078314555131e-01  -1.179265247942934e-03
2017-01-01T06:27:10.000   1.345180205210010e+04  -4.093055808188555e+04   7.128554597849296e+01   2.935915976407977e+00   6.559481982247788e-01  -1.182865513994720e-03
2017-01-01T06:27:20.000   1.348115785713441e+04  -4.092398840129041e+04   7.127369932766040e+01   2.935244918157570e+00   6.579878210822391e-01  -1.186464479533649e-03
2017-01-01T06:27:30.000   1.351050694492565e+04  -4.091739832819614e+04   7.126181669369275e+01   2.934572534480826e+00   6.600266993698092e-01  -1.190062143375265e-03
2017-01-01T06:27:40.000   1.353984930253711e+04  -4.091078786998239e+04   7.124989808948791e+01   2.933898826234274e+00   6.620648324361199e-01  -1.193658504346943e-03
2017-01-01T06:27:50.000   1.356918491674240e+04  -4.090415703410028e+04   7.123794352807272e+01   2.933223794281112e+00   6.641022196100176e-01  -1.197253561241115e-03
2017-01-01T06:28:00.000   1.359851377430867e+04  -4.089750582801169e+04   7.122595302249323e+01   2.932547439484900e+00   6.661388602202668e-01  -1.200847312850047e-03
2017-01-01T06:28:10.000   1.362783586199612e+04  -4.089083425918812e+04   7.121392658581284e+01   2.931869762709505e+00   6.681747535955066e-01  -1.204439757965761e-03
2017-01-01T06:28:20.000   1.365715116627701e+04  -4.088414233517749e+04   7.120186423123276e+01   2.931190764825772e+00   6.702098990447757e-01  -1.208030895345675e-03
2017-01-01T06:28:30.000   1.368645967371459e+04  -4.087743006351522e+04   7.118976597193144e+01   2.930510446702594e+00   6.722442958837805e-01  -1.211620723758955e-03
2017-01-01T06:28:40.000   1.371576137081365e+04  -4.087069745175890e+04   7.117763182112742e+01   2.929828809210407e+00   6.742779434245368e-01  -1.215209241968226e-03
2017-01-01T06:28:50.000   1.374505624468186e+04  -4.086394450733648e+04   7.116546179180554e+01   2.929145853205817e+00   6.763108410212624e-01  -1.218796448810548e-03
2017-01-01T06:29:00.000   1.377434428236839e+04  -4.085717123769779e+04   7.115325589699010e+01   2.928461579546952e+00   6.783429880244712e-01  -1.222382343116428e-03
2017-01-01T06:29:10.000   1.380362547101359e+04  -4.085037765028081e+04   7.114101414968391e+01   2.927775989090025e+00   6.803743837913679e-01  -1.225966923728148e-03
2017-01-01T06:29:20.000   1.383289979746878e+04  -4.084356375259668e+04   7.112873656302175e+01   2.927089082698024e+00   6.824050276594322e-01  -1.229550189453178e-03
2017-01-01T06:29:30.000   1.386216724857878e+04  -4.083672955216729e+04   7.111642315015770e+01   2.926400861234304e+00   6.844349189660570e-01  -1.233132139098807e-03
2017-01-01T06:29:40.000   1.389142781118155e+04  -4.082987505652415e+04   7.110407392426322e+01   2.925711325562515e+00   6.864640570485061e-01  -1.236712771472076e-03
2017-01-01T06:29:50.000   1.392068147182773e+04  -4.082300027327698e+04   7.109168889865065e+01   2.925020476553410e+00   6.884924412245021e-01  -1.240292085345509e-03
2017-01-01T06:30:00.000   1.394992821715875e+04  -4.081610521002243e+04   7.107926808660859e+01   2.924328315075740e+00   6.905200708184118e-01  -1.243870079503331e-03
2017-01-01T06:30:10.000   1.397916803375774e+04  -4.080918987437960e+04   7.106681150146623e+01   2.923634841999818e+00   6.925469451509161e-01  -1.247446752723237e-03
2017-01-01T06:30:20.000   1.400840090880945e+04  -4.080225427383411e+04   7.105431915631235e+01   2.922940058181881e+00   6.945730635847523e-01  -1.251022103857128e-03
2017-01-01T06:30:30.000   1.403762682944027e+04  -4.079529841589399e+04   7.104179106427594e+01   2.922243964479712e+00   6.965984254789644e-01  -1.254596131750360e-03
2017-01-01T06:30:40.000   1.406684578286758e+04  -4.078832230805459e+04   7.102922723846326e+01   2.921546561749131e+00   6.986230301992580e-01  -1.258168835260025e-03
2017-01-01T06:30:50.000   1.409605775602037e+04  -4.078132595788633e+04   7.101662769211579e+01   2.920847850852849e+00   7.006468770916742e-01  -1.261740213208478e-03
2017-01-01T06:31:00.000   1.412526273582114e+04  -4.077430937297033e+04   7.100399243849422e+01   2.920147832653941e+00   7.026699655021632e-01  -1.265310264417896e-03
2017-01-01T06:31:10.000   1.415446070918557e+04  -4.076727256089737e+04   7.099132149087680e+01   2.919446508015779e+00   7.046922947765417e-01  -1.268878987710193e-03
2017-01-01T06:31:20.000   1.418365166274267e+04  -4.076021552933819e+04   7.097861486268557e+01   2.918743877808940e+00   7.067138642411478e-01  -1.272446381872899e-03
2017-01-01T06:31:30.000   1.421283558321202e+04  -4.075313828594984e+04   7.096587256731793e+01   2.918039942901970e+00   7.087346732289351e-01  -1.276012445705191e-03
2017-01-01T06:31:40.000   1.424201245725228e+04  -4.074604083841291e+04   7.095309461821371e+01   2.917334704165061e+00   7.107547210689842e-01  -1.279577177999395e-03
2017-01-01T06:31:50.000   1.427118227213059e+04  -4.073892319426866e+04   7.094028102856191e+01   2.916628162453876e+00   7.127740071328525e-01  -1.283140577622757e-03
2017-01-01T06:32:00.000   1.430034501505136e+04  -4.073178536108213e+04   7.092743181159435e+01   2.915920318625763e+00   7.147925307880990e-01  -1.286702643435449e-03
2017-01-01T06:32:10.000   1.432950067332964e+04  -4.072462734640027e+04   7.091454698051014e+01   2.915211173535569e+00   7.168102914102854e-01  -1.290263374311741e-03
2017-01-01T06:32:20.000   1.435864923392474e+04  -4.071744915786380e+04   7.090162654867754e+01   2.914500728046831e+00   7.188272883506744e-01  -1.293822769083005e-03
2017-01-01T06:32:30.000   1.438779068382520e+04  -4.071025080311534e+04   7.088867052946784e+01   2.913788983022563e+00   7.208435209628983e-01  -1.297380826584775e-03
2017-01-01T06:32:40.000   1.441692500996285e+04  -4.070303228981960e+04   7.087567893629250e+01   2.913075939327309e+00   7.228589885970012e-01  -1.300937545646226e-03
2017-01-01T06:32:50.000   1.444605219923662e+04  -4.069579362565935e+04   7.086265178259528e+01   2.912361597826669e+00   7.248736906011088e-01  -1.304492925093131e-03
2017-01-01T06:33:00.000   1.447517223854111e+04  -4.068853481832688e+04   7.084958908183707e+01   2.911645959386511e+00   7.268876263233861e-01  -1.308046963751303e-03
2017-01-01T06:33:10.000   1.450428511477718e+04  -4.068125587552157e+04   7.083649084749155e+01   2.910929024872714e+00   7.289007951127700e-01  -1.311599660447900e-03
2017-01-01T06:33:20.000   1.453339081495628e+04  -4.067395680492446e+04   7.082335709299944e+01   2.910210795148662e+00   7.309131963261939e-01  -1.315151014024160e-03
2017-01-01T06:33:30.000   1.456248932613072e+04  -4.066663761421488e+04   7.081018783179836e+01   2.909491271076880e+00   7.329248293237526e-01  -1.318701023326878e-03
2017-01-01T06:33:40.000   1.459158063539379e+04  -4.065929831107047e+04   7.079698307732289e+01   2.908770453519061e+00   7.349356934687123e-01  -1.322249687208421e-03
2017-01-01T06:33:50.000   1.462066472994878e+04  -4.065193890314904e+04   7.078374284297198e+01   2.908048343334285e+00   7.369457881322703e-01  -1.325797004535145e-03
2017-01-01T06:34:00.000   1.464974159700520e+04  -4.064455939811526e+04   7.077046714215695e+01   2.907324941381639e+00   7.389551126863878e-01  -1.329342974174726e-03
